NORAD_CAT_ID,OBJECT_NAME,OBJECT_TYPE,EPOCH,MEAN_MOTION,ECCENTRICITY,INCLINATION,RA_OF_ASC_NODE,ARG_OF_PERICENTER,MEAN_ANOMALY,BSTAR,MEAN_MOTION_DOT,MEAN_MOTION_DDOT,TLE_LINE0,TLE_LINE1,TLE_LINE2,SEMIMAJOR_AXIS,PERIOD,APOGEE,PERIGEE,DECAYED
51729.0,STARLINK-3523,PAYLOAD,2024-01-30 08:57:12,15.08833473,0.000124,53.2173,172.7185,101.8907,258.2224,1.2285e-05,-9.2e-07,0.0,0 STARLINK-3523,1 51729U 22016R   24030.37305792 -.00000092  00000-0  12285-4 0  9994,2 51729  53.2173 172.7185 0001240 101.8907 258.2224 15.08833473108557,6917.9,95.438,540.623,538.908,0.0
51729.0,STARLINK-3523,PAYLOAD,2024-01-30 13:43:21,15.08834521,0.0001269,53.2175,171.8269,101.8878,258.2256,2.2038e-05,6.3e-07,0.0,0 STARLINK-3523,1 51729U 22016R   24030.57177755  .00000063  00000-0  22038-4 0  9996,2 51729  53.2175 171.8269 0001269 101.8878 258.2256 15.08834521107458,6917.897,95.438,540.64,538.884,0.0
51729.0,STARLINK-3523,PAYLOAD,2024-01-30 16:54:07,15.08837619,0.0001249,53.2173,171.232,94.327,265.7865,4.7073e-05,4.61e-06,0.0,0 STARLINK-3523,1 51729U 22016R   24030.70425539  .00000461  00000-0  47073-4 0  9995,2 51729  53.2173 171.2320 0001249  94.3270 265.7865 15.08837619107470,6917.888,95.438,540.617,538.889,0.0
51729.0,STARLINK-3523,PAYLOAD,2024-02-02 14:51:05,15.08842438,0.0001328,53.2177,158.1486,89.5229,270.5915,5.6177e-05,6.06e-06,0.0,0 STARLINK-3523,1 51729U 22016R   24033.61881304  .00000606  00000-0  56177-4 0  9990,2 51729  53.2177 158.1486 0001328  89.5229 270.5915 15.08842438107913,6917.873,95.437,540.657,538.819,0.0
51729.0,STARLINK-3523,PAYLOAD,2024-02-02 16:26:28,15.08848384,0.0001332,53.217,157.8502,93.2827,266.8318,0.00010737,1.422e-05,0.0,0 STARLINK-3523,1 51729U 22016R   24033.68504817  .00001422  00000-0  10737-3 0  9996,2 51729  53.2170 157.8502 0001332  93.2827 266.8318 15.08848384109050,6917.855,95.437,540.641,538.798,0.0
51729.0,STARLINK-3523,PAYLOAD,2024-02-03 13:06:29,15.08843971,0.0001644,53.2167,153.9803,119.0354,241.0803,-3.3752e-05,-8.25e-06,0.0,0 STARLINK-3523,1 51729U 22016R   24034.54617749 -.00000825  00000-0 -33752-4 0  9992,2 51729  53.2167 153.9803 0001644 119.0354 241.0803 15.08843971108055,6917.868,95.437,540.871,538.596,0.0
51729.0,STARLINK-3523,PAYLOAD,2024-02-03 17:52:39,15.08844255,0.0001683,53.2173,153.0891,121.2388,238.8769,-5.9964e-05,-1.242e-05,0.0,0 STARLINK-3523,1 51729U 22016R   24034.74489849 -.00001242  00000-0 -59964-4 0  9999,2 51729  53.2173 153.0891 0001683 121.2388 238.8769 15.08844255109215,6917.867,95.437,540.897,538.568,0.0
51729.0,STARLINK-3523,PAYLOAD,2024-02-04 14:32:39,15.08847416,0.0001394,53.2169,149.2252,98.3637,261.7513,1.2281e-05,-9.2e-07,0.0,0 STARLINK-3523,1 51729U 22016R   24035.60601283 -.00000092  00000-0  12281-4 0  9995,2 51729  53.2169 149.2252 0001394  98.3637 261.7513 15.08847416108211,6917.858,95.437,540.687,538.758,0.0
51729.0,STARLINK-3523,PAYLOAD,2024-02-05 11:12:41,15.08816632,0.0001477,53.217,145.3597,100.5563,259.5596,0.00021215,3.088e-05,0.0,0 STARLINK-3523,1 51729U 22016R   24036.46714693  .00003088  00000-0  21215-3 0  9993,2 51729  53.2170 145.3597 0001477 100.5563 259.5596 15.08816632109479,6917.952,95.439,540.839,538.795,0.0
51729.0,STARLINK-3523,PAYLOAD,2024-02-05 14:23:27,15.08833791,0.0001426,53.2175,144.7704,99.5252,260.5902,4.64e-05,4.5e-06,0.0,0 STARLINK-3523,1 51729U 22016R   24036.59962313  .00000450  00000-0  46400-4 0  9995,2 51729  53.2175 144.7704 0001426  99.5252 260.5902 15.08833791108368,6917.899,95.438,540.751,538.778,0.0
51729.0,STARLINK-3523,PAYLOAD,2024-02-06 14:14:13,15.08848305,0.0001315,53.217,140.3097,96.1738,263.9404,7.3484e-05,8.82e-06,0.0,0 STARLINK-3523,1 51729U 22016R   24037.59321488  .00000882  00000-0  73484-4 0  9999,2 51729  53.2170 140.3097 0001315  96.1738 263.9404 15.08848305108517,6917.855,95.437,540.63,538.81,0.0
51729.0,STARLINK-3523,PAYLOAD,2024-02-07 12:29:38,15.08840719,0.0001538,53.2173,136.1458,79.6245,280.4921,5.0481e-05,5.16e-06,0.0,0 STARLINK-3523,1 51729U 22016R   24038.52058266  .00000516  00000-0  50481-4 0  9990,2 51729  53.2173 136.1458 0001538  79.6245 280.4921 15.08840719109789,6917.878,95.438,540.807,538.679,0.0
51729.0,STARLINK-3523,PAYLOAD,2024-02-07 14:05:01,15.08844317,0.0001582,53.2178,135.8482,78.6172,281.4998,5.8113e-05,6.37e-06,0.0,0 STARLINK-3523,1 51729U 22016R   24038.58682031  .00000637  00000-0  58113-4 0  9993,2 51729  53.2178 135.8482 0001582  78.6172 281.4998 15.08844317108663,6917.867,95.437,540.827,538.638,0.0
51729.0,STARLINK-3523,PAYLOAD,2024-02-08 12:20:25,15.08841984,0.0001917,53.2176,131.6856,74.2416,285.8788,3.8517e-06,-2.27e-06,0.0,0 STARLINK-3523,1 51729U 22016R   24039.51418480 -.00000227  00000-0  38517-5 0  9995,2 51729  53.2176 131.6856 0001917  74.2416 285.8788 15.08841984108803,6917.874,95.437,541.065,538.413,0.0
51729.0,STARLINK-3523,PAYLOAD,2024-02-09 12:11:12,15.08841475,0.0001575,53.2169,127.2237,83.349,276.7681,3.2562e-05,2.3e-06,0.0,0 STARLINK-3523,1 51729U 22016R   24040.50778270  .00000230  00000-0  32562-4 0  9998,2 51729  53.2169 127.2237 0001575  83.3490 276.7681 15.08841475110081,6917.876,95.437,540.83,538.651,0.0
51729.0,STARLINK-3523,PAYLOAD,2024-02-09 15:21:58,15.08847185,0.0001575,53.2167,126.6269,90.89,269.2272,6.0039e-05,6.68e-06,0.0,0 STARLINK-3523,1 51729U 22016R   24040.64025767  .00000668  00000-0  60039-4 0  9994,2 51729  53.2167 126.6269 0001575  90.8900 269.2272 15.08847185110106,6917.858,95.437,540.813,538.634,0.0
51729.0,STARLINK-3523,PAYLOAD,2024-02-10 12:02:00,15.08834953,0.0001759,53.2177,122.7631,96.2357,263.8835,1.2129e-05,-9.5e-07,0.0,0 STARLINK-3523,1 51729U 22016R   24041.50138984 -.00000095  00000-0  12129-4 0  9998,2 51729  53.2177 122.7631 0001759  96.2357 263.8835 15.08834953110235,6917.896,95.438,540.978,538.544,0.0
51729.0,STARLINK-3523,PAYLOAD,2024-02-11 10:17:23,15.08844642,0.0001646,53.2173,118.5989,93.6533,266.4647,8.2422e-05,1.024e-05,0.0,0 STARLINK-3523,1 51729U 22016R   24042.42874334  .00001024  00000-0  82422-4 0  9991,2 51729  53.2173 118.5989 0001646  93.6533 266.4647 15.08844642110373,6917.866,95.437,540.87,538.593,0.0
51729.0,STARLINK-3523,PAYLOAD,2024-02-12 10:08:10,15.08847509,0.000159,53.2172,114.1395,82.8015,277.3158,0.00016204,2.292e-05,0.0,0 STARLINK-3523,1 51729U 22016R   24043.42233942  .00002292  00000-0  16204-3 0  9998,2 51729  53.2172 114.1395 0001590  82.8015 277.3158 15.08847509109391,6917.857,95.437,540.822,538.622,0.0
51729.0,STARLINK-3523,PAYLOAD,2024-02-13 11:34:21,15.08827062,0.0001385,53.2166,109.379,84.5662,275.5488,-0.00013986,-2.512e-05,0.0,0 STARLINK-3523,1 51729U 22016R   24044.48219352 -.00002512  00000-0 -13986-3 0  9995,2 51729  53.2166 109.3790 0001385  84.5662 275.5488 15.08827062110680,6917.92,95.438,540.743,538.827,0.0
51729.0,STARLINK-3523,PAYLOAD,2024-02-13 21:06:40,15.08829515,0.0001538,53.217,107.5956,76.2221,283.8942,-9.8653e-05,-1.857e-05,0.0,0 STARLINK-3523,1 51729U 22016R   24044.87963520 -.00001857  00000-0 -98653-4 0  9997,2 51729  53.2170 107.5956 0001538  76.2221 283.8942 15.08829515109611,6917.912,95.438,540.841,538.713,0.0
51729.0,STARLINK-3523,PAYLOAD,2024-02-14 11:25:07,15.08852466,0.0001512,53.2164,104.9189,95.791,264.3255,5.7078e-05,6.21e-06,0.0,0 STARLINK-3523,1 51729U 22016R   24045.47577612  .00000621  00000-0  57078-4 0  9999,2 51729  53.2164 104.9189 0001512  95.7910 264.3255 15.08852466110834,6917.842,95.437,540.753,538.661,0.0
51729.0,STARLINK-3523,PAYLOAD,2024-02-14 13:00:30,15.08853891,0.0001523,53.2165,104.6205,95.8173,264.2993,6.8331e-05,8e-06,0.0,0 STARLINK-3523,1 51729U 22016R   24045.54201467  .00000800  00000-0  68331-4 0  9992,2 51729  53.2165 104.6205 0001523  95.8173 264.2993 15.08853891109711,6917.838,95.437,540.757,538.649,0.0
51729.0,STARLINK-3523,PAYLOAD,2024-02-14 20:57:26,15.08838759,0.0001331,53.216,103.1349,97.9089,262.2055,-5.2575e-05,-1.125e-05,0.0,0 STARLINK-3523,1 51729U 22016R   24045.87322657 -.00001125  00000-0 -52575-4 0  9999,2 51729  53.2160 103.1349 0001331  97.9089 262.2055 15.08838759109763,6917.884,95.438,540.67,538.828,0.0
51729.0,STARLINK-3523,PAYLOAD,2024-02-15 11:15:55,15.08821127,0.000165,53.2169,100.4599,86.6914,273.4267,0.00017865,2.555e-05,0.0,0 STARLINK-3523,1 51729U 22016R   24046.46939634  .00002555  00000-0  17865-3 0  9992,2 51729  53.2169 100.4599 0001650  86.6914 273.4267 15.08821127110981,6917.938,95.439,540.945,538.662,0.0
51729.0,STARLINK-3523,PAYLOAD,2024-02-15 20:48:14,15.08837462,0.0001594,53.2169,98.6731,75.6285,284.4884,-6.2083e-05,-1.276e-05,0.0,0 STARLINK-3523,1 51729U 22016R   24046.86683447 -.00001276  00000-0 -62083-4 0  9998,2 51729  53.2169  98.6731 0001594  75.6285 284.4884 15.08837462109910,6917.888,95.438,540.856,538.65,0.0
51729.0,STARLINK-3523,PAYLOAD,2024-02-16 09:31:19,15.08836503,0.0001346,53.2153,96.2956,89.6502,270.4645,0.00011538,1.549e-05,0.0,0 STARLINK-3523,1 51729U 22016R   24047.39675482  .00001549  00000-0  11538-3 0  9996,2 51729  53.2153  96.2956 0001346  89.6502 270.4645 15.08836503111129,6917.891,95.438,540.687,538.825,0.0
51729.0,STARLINK-3523,PAYLOAD,2024-02-17 09:22:06,15.08844872,0.0001488,53.2157,91.8339,97.6432,262.4729,0.00023797,3.502e-05,0.0,0 STARLINK-3523,1 51729U 22016R   24048.39034956  .00003502  00000-0  23797-3 0  9993,2 51729  53.2157  91.8339 0001488  97.6432 262.4729 15.08844872110140,6917.865,95.437,540.76,538.701,0.0
51729.0,STARLINK-3523,PAYLOAD,2024-02-18 09:12:53,15.08842273,0.0001464,53.2155,87.3753,86.7479,273.3681,0.00011615,1.561e-05,0.0,0 STARLINK-3523,1 51729U 22016R   24049.38395575  .00001561  00000-0  11615-3 0  9999,2 51729  53.2155  87.3753 0001464  86.7479 273.3681 15.08842273111425,6917.873,95.437,540.751,538.726,0.0
51729.0,STARLINK-3523,PAYLOAD,2024-02-18 12:23:39,15.08846544,0.0001519,53.2158,86.7799,88.7361,271.3805,0.00011838,1.597e-05,0.0,0 STARLINK-3523,1 51729U 22016R   24049.51643273  .00001597  00000-0  11838-3 0  9991,2 51729  53.2158  86.7799 0001519  88.7361 271.3805 15.08846544110312,6917.86,95.437,540.776,538.675,0.0
